ALOS (DAICHI)           
1 28931U 06002A   26026.42933456  .00002429  00000+0  41651-3 0  9999
2 28931  98.1151 342.6214 0002173  79.4465 280.6985 14.69657066 67270
H-2A R/B                
1 28932U 06002B   26026.62998550  .00010684  00000+0  54675-3 0  9990
2 28932  98.2338 170.0870 0053766  25.4934 334.8930 15.15558965 88068
RESURS-DK 1             
1 29228U 06021A   26026.60921998  .00004350  00000+0  25552-3 0  9995
2 29228  69.9346 345.8517 0005132 215.5341 144.5484 15.12468709 81166
CZ-4B R/B               
1 29507U 06046C   26026.58270461  .00007188  00000+0  36759-3 0  9994
2 29507  97.5678  71.6009 0034944  55.1713 305.2798 15.16420381 53661
CZ-2C R/B               
1 31114U 07010B   26026.59656045  .00000213  00000+0  11660-3 0  9996
2 31114  98.3971 141.9904 0059918  57.3081 303.3856 14.20230831973745
COSMO-SKYMED 1          
1 31598U 07023A   26026.67007300  .00006187  00000+0  55423-3 0  9990
2 31598  97.8852 217.3776 0001441  89.0675 271.0711 14.96176021  8627
COSMOS 2428             
1 31792U 07029A   26026.12821210  .00000454  00000+0  26919-3 0  9995
2 31792  70.9402 292.6876 0006374 325.2338  34.8366 14.12921143958080
SL-16 R/B               
1 31793U 07029B   26026.63219414  .00000040  00000+0  45662-4 0  9997
2 31793  70.9734 260.7928 0001872 271.5357 119.4498 14.14822378959422
KORONAS-FOTON           
1 33504U 09003A   26026.53990082  .00014786  00000+0  34281-3 0  9995
2 33504  82.4326 319.6539 0009610 318.9079  41.1443 15.42227643939241
CZ-2C R/B               
1 37731U 11030B   26026.46648700  .00002093  00000+0  26996-3 0  9995
2 37731  97.8474 344.6027 0053883 126.7582 348.1778 14.81057080783848
H-2A R/B                
1 38341U 12025E   26026.49503254  .00005006  00000+0  45680-3 0  9993
2 38341  98.4653 350.2016 0046249  90.7526 269.8992 14.94782150741915
SHIJIAN-16 (SJ-16)      
1 39358U 13057A   26026.66031260  .00001652  00000+0  16458-3 0  9994
2 39358  74.9716 264.6488 0017450 215.9575 144.0440 14.92203372665235
