CCSDS_OMM_VERS = 2.0
CREATION_DATE  = 
ORIGINATOR     = 

OBJECT_NAME    = ALOS (DAICHI)
OBJECT_ID      = 2006-002A
CENTER_NAME    = EARTH
REF_FRAME      = TEME
TIME_SYSTEM    = UTC
MEAN_ELEMENT_THEORY = SGP/SGP4

EPOCH          = 2026-01-26T10:18:14.505984
MEAN_MOTION    = 14.69657066
ECCENTRICITY   = .00021732
INCLINATION    = 98.1151
RA_OF_ASC_NODE = 342.6214
ARG_OF_PERICENTER = 79.4465
MEAN_ANOMALY   = 280.6985

EPHEMERIS_TYPE = 0
CLASSIFICATION_TYPE = U
NORAD_CAT_ID   = 28931
ELEMENT_SET_NO = 999
REV_AT_EPOCH   = 6727
BSTAR          = .41650682E-3
MEAN_MOTION_DOT = .2429E-4
MEAN_MOTION_DDOT = 0

CCSDS_OMM_VERS = 2.0
CREATION_DATE  = 
ORIGINATOR     = 

OBJECT_NAME    = H-2A R/B
OBJECT_ID      = 2006-002B
CENTER_NAME    = EARTH
REF_FRAME      = TEME
TIME_SYSTEM    = UTC
MEAN_ELEMENT_THEORY = SGP/SGP4

EPOCH          = 2026-01-26T15:07:10.747200
MEAN_MOTION    = 15.15558965
ECCENTRICITY   = .00537664
INCLINATION    = 98.2338
RA_OF_ASC_NODE = 170.0870
ARG_OF_PERICENTER = 25.4934
MEAN_ANOMALY   = 334.8930

EPHEMERIS_TYPE = 0
CLASSIFICATION_TYPE = U
NORAD_CAT_ID   = 28932
ELEMENT_SET_NO = 999
REV_AT_EPOCH   = 8806
BSTAR          = .54674974E-3
MEAN_MOTION_DOT = .10684E-3
MEAN_MOTION_DDOT = 0

CCSDS_OMM_VERS = 2.0
CREATION_DATE  = 
ORIGINATOR     = 

OBJECT_NAME    = RESURS-DK 1
OBJECT_ID      = 2006-021A
CENTER_NAME    = EARTH
REF_FRAME      = TEME
TIME_SYSTEM    = UTC
MEAN_ELEMENT_THEORY = SGP/SGP4

EPOCH          = 2026-01-26T14:37:16.606272
MEAN_MOTION    = 15.12468709
ECCENTRICITY   = .00051326
INCLINATION    = 69.9346
RA_OF_ASC_NODE = 345.8517
ARG_OF_PERICENTER = 215.5341
MEAN_ANOMALY   = 144.5484

EPHEMERIS_TYPE = 0
CLASSIFICATION_TYPE = U
NORAD_CAT_ID   = 29228
ELEMENT_SET_NO = 999
REV_AT_EPOCH   = 8116
BSTAR          = .25552003E-3
MEAN_MOTION_DOT = .435E-4
MEAN_MOTION_DDOT = 0

CCSDS_OMM_VERS = 2.0
CREATION_DATE  = 
ORIGINATOR     = 

OBJECT_NAME    = CZ-4B R/B
OBJECT_ID      = 2006-046C
CENTER_NAME    = EARTH
REF_FRAME      = TEME
TIME_SYSTEM    = UTC
MEAN_ELEMENT_THEORY = SGP/SGP4

EPOCH          = 2026-01-26T13:59:05.678304
MEAN_MOTION    = 15.16420381
ECCENTRICITY   = .00349442
INCLINATION    = 97.5678
RA_OF_ASC_NODE = 71.6009
ARG_OF_PERICENTER = 55.1713
MEAN_ANOMALY   = 305.2798

EPHEMERIS_TYPE = 0
CLASSIFICATION_TYPE = U
NORAD_CAT_ID   = 29507
ELEMENT_SET_NO = 999
REV_AT_EPOCH   = 5366
BSTAR          = .36759215E-3
MEAN_MOTION_DOT = .7188E-4
MEAN_MOTION_DDOT = 0

CCSDS_OMM_VERS = 2.0
CREATION_DATE  = 
ORIGINATOR     = 

OBJECT_NAME    = CZ-2C R/B
OBJECT_ID      = 2007-010B
CENTER_NAME    = EARTH
REF_FRAME      = TEME
TIME_SYSTEM    = UTC
MEAN_ELEMENT_THEORY = SGP/SGP4

EPOCH          = 2026-01-26T14:19:02.822880
MEAN_MOTION    = 14.20230831
ECCENTRICITY   = .00599181
INCLINATION    = 98.3971
RA_OF_ASC_NODE = 141.9904
ARG_OF_PERICENTER = 57.3081
MEAN_ANOMALY   = 303.3856

EPHEMERIS_TYPE = 0
CLASSIFICATION_TYPE = U
NORAD_CAT_ID   = 31114
ELEMENT_SET_NO = 999
REV_AT_EPOCH   = 97374
BSTAR          = .11659622E-3
MEAN_MOTION_DOT = .213E-5
MEAN_MOTION_DDOT = 0

CCSDS_OMM_VERS = 2.0
CREATION_DATE  = 
ORIGINATOR     = 

OBJECT_NAME    = COSMO-SKYMED 1
OBJECT_ID      = 2007-023A
CENTER_NAME    = EARTH
REF_FRAME      = TEME
TIME_SYSTEM    = UTC
MEAN_ELEMENT_THEORY = SGP/SGP4

EPOCH          = 2026-01-26T16:04:54.307200
MEAN_MOTION    = 14.96176021
ECCENTRICITY   = .00014411
INCLINATION    = 97.8852
RA_OF_ASC_NODE = 217.3776
ARG_OF_PERICENTER = 89.0675
MEAN_ANOMALY   = 271.0711

EPHEMERIS_TYPE = 0
CLASSIFICATION_TYPE = U
NORAD_CAT_ID   = 31598
ELEMENT_SET_NO = 999
REV_AT_EPOCH   = 862
BSTAR          = .55423382E-3
MEAN_MOTION_DOT = .6187E-4
MEAN_MOTION_DDOT = 0

CCSDS_OMM_VERS = 2.0
CREATION_DATE  = 
ORIGINATOR     = 

OBJECT_NAME    = COSMOS 2428
OBJECT_ID      = 2007-029A
CENTER_NAME    = EARTH
REF_FRAME      = TEME
TIME_SYSTEM    = UTC
MEAN_ELEMENT_THEORY = SGP/SGP4

EPOCH          = 2026-01-26T03:04:37.525440
MEAN_MOTION    = 14.12921143
ECCENTRICITY   = .00063749
INCLINATION    = 70.9402
RA_OF_ASC_NODE = 292.6876
ARG_OF_PERICENTER = 325.2338
MEAN_ANOMALY   = 34.8366

EPHEMERIS_TYPE = 0
CLASSIFICATION_TYPE = U
NORAD_CAT_ID   = 31792
ELEMENT_SET_NO = 999
REV_AT_EPOCH   = 95808
BSTAR          = .26918503E-3
MEAN_MOTION_DOT = .454E-5
MEAN_MOTION_DDOT = 0

CCSDS_OMM_VERS = 2.0
CREATION_DATE  = 
ORIGINATOR     = 

OBJECT_NAME    = SL-16 R/B
OBJECT_ID      = 2007-029B
CENTER_NAME    = EARTH
REF_FRAME      = TEME
TIME_SYSTEM    = UTC
MEAN_ELEMENT_THEORY = SGP/SGP4

EPOCH          = 2026-01-26T15:10:21.573696
MEAN_MOTION    = 14.14822378
ECCENTRICITY   = .00018721
INCLINATION    = 70.9734
RA_OF_ASC_NODE = 260.7928
ARG_OF_PERICENTER = 271.5357
MEAN_ANOMALY   = 119.4498

EPHEMERIS_TYPE = 0
CLASSIFICATION_TYPE = U
NORAD_CAT_ID   = 31793
ELEMENT_SET_NO = 999
REV_AT_EPOCH   = 95942
BSTAR          = .45662182E-4
MEAN_MOTION_DOT = .4E-6
MEAN_MOTION_DDOT = 0

CCSDS_OMM_VERS = 2.0
CREATION_DATE  = 
ORIGINATOR     = 

OBJECT_NAME    = KORONAS-FOTON
OBJECT_ID      = 2009-003A
CENTER_NAME    = EARTH
REF_FRAME      = TEME
TIME_SYSTEM    = UTC
MEAN_ELEMENT_THEORY = SGP/SGP4

EPOCH          = 2026-01-26T12:57:27.430848
MEAN_MOTION    = 15.42227643
ECCENTRICITY   = .00096103
INCLINATION    = 82.4326
RA_OF_ASC_NODE = 319.6539
ARG_OF_PERICENTER = 318.9079
MEAN_ANOMALY   = 41.1443

EPHEMERIS_TYPE = 0
CLASSIFICATION_TYPE = U
NORAD_CAT_ID   = 33504
ELEMENT_SET_NO = 999
REV_AT_EPOCH   = 93924
BSTAR          = .34280922E-3
MEAN_MOTION_DOT = .14786E-3
MEAN_MOTION_DDOT = 0

CCSDS_OMM_VERS = 2.0
CREATION_DATE  = 
ORIGINATOR     = 

OBJECT_NAME    = CZ-2C R/B
OBJECT_ID      = 2011-030B
CENTER_NAME    = EARTH
REF_FRAME      = TEME
TIME_SYSTEM    = UTC
MEAN_ELEMENT_THEORY = SGP/SGP4

EPOCH          = 2026-01-26T11:11:44.476800
MEAN_MOTION    = 14.81057080
ECCENTRICITY   = .0053883
INCLINATION    = 97.8474
RA_OF_ASC_NODE = 344.6027
ARG_OF_PERICENTER = 126.7582
MEAN_ANOMALY   = 348.1778

EPHEMERIS_TYPE = 0
CLASSIFICATION_TYPE = U
NORAD_CAT_ID   = 37731
ELEMENT_SET_NO = 999
REV_AT_EPOCH   = 78384
BSTAR          = .2699609E-3
MEAN_MOTION_DOT = .2093E-4
MEAN_MOTION_DDOT = 0

CCSDS_OMM_VERS = 2.0
CREATION_DATE  = 
ORIGINATOR     = 

OBJECT_NAME    = H-2A R/B
OBJECT_ID      = 2012-025E
CENTER_NAME    = EARTH
REF_FRAME      = TEME
TIME_SYSTEM    = UTC
MEAN_ELEMENT_THEORY = SGP/SGP4

EPOCH          = 2026-01-26T11:52:50.811456
MEAN_MOTION    = 14.94782150
ECCENTRICITY   = .00462495
INCLINATION    = 98.4653
RA_OF_ASC_NODE = 350.2016
ARG_OF_PERICENTER = 90.7526
MEAN_ANOMALY   = 269.8992

EPHEMERIS_TYPE = 0
CLASSIFICATION_TYPE = U
NORAD_CAT_ID   = 38341
ELEMENT_SET_NO = 999
REV_AT_EPOCH   = 74191
BSTAR          = .4568041E-3
MEAN_MOTION_DOT = .5006E-4
MEAN_MOTION_DDOT = 0

CCSDS_OMM_VERS = 2.0
CREATION_DATE  = 
ORIGINATOR     = 

OBJECT_NAME    = SHIJIAN-16 (SJ-16)
OBJECT_ID      = 2013-057A
CENTER_NAME    = EARTH
REF_FRAME      = TEME
TIME_SYSTEM    = UTC
MEAN_ELEMENT_THEORY = SGP/SGP4

EPOCH          = 2026-01-26T15:50:51.008640
MEAN_MOTION    = 14.92203372
ECCENTRICITY   = .00174506
INCLINATION    = 74.9716
RA_OF_ASC_NODE = 264.6488
ARG_OF_PERICENTER = 215.9575
MEAN_ANOMALY   = 144.0440

EPHEMERIS_TYPE = 0
CLASSIFICATION_TYPE = U
NORAD_CAT_ID   = 39358
ELEMENT_SET_NO = 999
REV_AT_EPOCH   = 66523
BSTAR          = .16458484E-3
MEAN_MOTION_DOT = .1652E-4
MEAN_MOTION_DDOT = 0

